{"type": "FeatureCollection", "features": [ {"type": "Feature", "properties": {"norad_id": 40697, "name": "SENTINEL-2A", "group": "resource", "lat": -77.78464260548341, "lon": -170.92418153582543, "alt_km": 797.0213522261265, "timestamp": "2025-12-06T14:35:36.784669+00:00", "meta": {"OBJECT_NAME": "SENTINEL-2A", "OBJECT_ID": "2015-028A", "EPOCH": "2025-12-06T06:39:46.711008", "MEAN_MOTION": 14.3082362, "ECCENTRICITY": 0.00010345, "INCLINATION": 98.5701, "RA_OF_ASC_NODE": 52.9025, "ARG_OF_PERICENTER": 94.468, "MEAN_ANOMALY": 265.6621, "EPHEMERIS_TYPE": 0, "CLASSIFICATION_TYPE": "U", "NORAD_CAT_ID": 40697, "ELEMENT_SET_NO": 999, "REV_AT_EPOCH": 54614, "BSTAR": 0.00014789752, "MEAN_MOTION_DOT": 3.44e-06, "MEAN_MOTION_DDOT": 0}, "tle": {"line1": "1 40697U 15028A   25340.27762397  .00000344  00000+0  14790-3 0  9993", "line2": "2 40697  98.5701  52.9025 0001034  94.4680 265.6621 14.30823620546147"}}, "geometry": {"type": "Point", "coordinates": [-170.92418153582543, -77.78464260548341]}}, {"type": "Feature", "properties": {"norad_id": 40701, "name": "GAOFEN-8", "group": "resource", "lat": 79.48117562068202, "lon": 25.153685881818184, "alt_km": 440.34228383701156, "timestamp": "2025-12-06T14:35:36.784680+00:00", "meta": {"OBJECT_NAME": "GAOFEN-8", "OBJECT_ID": "2015-030A", "EPOCH": "2025-12-06T06:21:58.191840", "MEAN_MOTION": 15.38225472, "ECCENTRICITY": 0.00113064, "INCLINATION": 97.6908, "RA_OF_ASC_NODE": 158.092, "ARG_OF_PERICENTER": 160.7131, "MEAN_ANOMALY": 199.4543, "EPHEMERIS_TYPE": 0, "CLASSIFICATION_TYPE": "U", "NORAD_CAT_ID": 40701, "ELEMENT_SET_NO": 999, "REV_AT_EPOCH": 58171, "BSTAR": 0.00079643888, "MEAN_MOTION_DOT": 0.00030046, "MEAN_MOTION_DDOT": 0}, "tle": {"line1": "1 40701U 15030A   25340.26525685  .00030046  00000+0  79644-3 0  9999", "line2": "2 40701  97.6908 158.0920 0011306 160.7131 199.4543 15.38225472581714"}}, "geometry": {"type": "Point", "coordinates": [25.153685881818184, 79.48117562068202]}}, {"type": "Feature", "properties": {"norad_id": 40718, "name": "CARBONITE 1 (CBNT-1)", "group": "resource", "lat": 4.118109604306981, "lon": -17.523969018288714, "alt_km": 614.5118825791596, "timestamp": "2025-12-06T14:35:36.784689+00:00", "meta": {"OBJECT_NAME": "CARBONITE 1 (CBNT-1)", "OBJECT_ID": "2015-032D", "EPOCH": "2025-12-06T05:42:16.445376", "MEAN_MOTION": 14.82696669, "ECCENTRICITY": 0.00139861, "INCLINATION": 97.6401, "RA_OF_ASC_NODE": 161.5684, "ARG_OF_PERICENTER": 203.2072, "MEAN_ANOMALY": 156.8512, "EPHEMERIS_TYPE": 0, "CLASSIFICATION_TYPE": "U", "NORAD_CAT_ID": 40718, "ELEMENT_SET_NO": 999, "REV_AT_EPOCH": 56074, "BSTAR": 0.00053994413, "MEAN_MOTION_DOT": 4.314e-05, "MEAN_MOTION_DDOT": 0}, "tle": {"line1": "1 40718U 15032D   25340.23769034  .00004314  00000+0  53994-3 0  9993", "line2": "2 40718  97.6401 161.5684 0013986 203.2072 156.8512 14.82696669560740"}}, "geometry": {"type": "Point", "coordinates": [-17.523969018288714, 4.118109604306981]}}, {"type": "Feature", "properties": {"norad_id": 40878, "name": "YAOGAN-27", "group": "resource", "lat": -51.90729773651283, "lon": -16.35154211260992, "alt_km": 1200.816286299313, "timestamp": "2025-12-06T14:35:36.784700+00:00", "meta": {"OBJECT_NAME": "YAOGAN-27", "OBJECT_ID": "2015-040A", "EPOCH": "2025-12-06T05:44:23.405856", "MEAN_MOTION": 13.16059916, "ECCENTRICITY": 0.00076945, "INCLINATION": 100.1007, "RA_OF_ASC_NODE": 330.1534, "ARG_OF_PERICENTER": 302.7295, "MEAN_ANOMALY": 57.3077, "EPHEMERIS_TYPE": 0, "CLASSIFICATION_TYPE": "U", "NORAD_CAT_ID": 40878, "ELEMENT_SET_NO": 999, "REV_AT_EPOCH": 49228, "BSTAR": 0.00015395942, "MEAN_MOTION_DOT": 1.6e-07, "MEAN_MOTION_DDOT": 0}, "tle": {"line1": "1 40878U 15040A   25340.23915979  .00000016  00000+0  15396-3 0  9999", "line2": "2 40878 100.1007 330.1534 0007694 302.7295  57.3077 13.16059916492286"}}, "geometry": {"type": "Point", "coordinates": [-16.35154211260992, -51.90729773651283]}}, {"type": "Feature", "properties": {"norad_id": 40894, "name": "GAOFEN-9 01", "group": "resource", "lat": 74.3060065326416, "lon": -131.573576474823, "alt_km": 601.690437308117, "timestamp": "2025-12-06T14:35:36.784710+00:00", "meta": {"OBJECT_NAME": "GAOFEN-9 01", "OBJECT_ID": "2015-047A", "EPOCH": "2025-12-06T06:01:47.201664", "MEAN_MOTION": 14.82397843, "ECCENTRICITY": 0.00288181, "INCLINATION": 97.6547, "RA_OF_ASC_NODE": 19.4871, "ARG_OF_PERICENTER": 54.8237, "MEAN_ANOMALY": 305.567, "EPHEMERIS_TYPE": 0, "CLASSIFICATION_TYPE": "U", "NORAD_CAT_ID": 40894, "ELEMENT_SET_NO": 999, "REV_AT_EPOCH": 55160, "BSTAR": 0.00032536853, "MEAN_MOTION_DOT": 2.574e-05, "MEAN_MOTION_DDOT": 0}, "tle": {"line1": "1 40894U 15047A   25340.25124076  .00002574  00000+0  32537-3 0  9993", "line2": "2 40894  97.6547  19.4871 0028818  54.8237 305.5670 14.82397843551603"}}, "geometry": {"type": "Point", "coordinates": [-131.573576474823, 74.3060065326416]}}, {"type": "Feature", "properties": {"norad_id": 41026, "name": "YAOGAN-28", "group": "resource", "lat": 51.504897958525206, "lon": 109.32371821734577, "alt_km": 489.0505660677791, "timestamp": "2025-12-06T14:35:36.784720+00:00", "meta": {"OBJECT_NAME": "YAOGAN-28", "OBJECT_ID": "2015-064A", "EPOCH": "2025-12-06T08:03:46.987200", "MEAN_MOTION": 15.24191416, "ECCENTRICITY": 0.00120475, "INCLINATION": 97.2807, "RA_OF_ASC_NODE": 118.3103, "ARG_OF_PERICENTER": 147.1879, "MEAN_ANOMALY": 213.0109, "EPHEMERIS_TYPE": 0, "CLASSIFICATION_TYPE": "U", "NORAD_CAT_ID": 41026, "ELEMENT_SET_NO": 999, "REV_AT_EPOCH": 56127, "BSTAR": 0.0006676915, "MEAN_MOTION_DOT": 0.00016248, "MEAN_MOTION_DDOT": 0}, "tle": {"line1": "1 41026U 15064A   25340.33596050  .00016248  00000+0  66769-3 0  9991", "line2": "2 41026  97.2807 118.3103 0012047 147.1879 213.0109 15.24191416561277"}}, "geometry": {"type": "Point", "coordinates": [109.32371821734577, 51.504897958525206]}}, {"type": "Feature", "properties": {"norad_id": 41038, "name": "YAOGAN-29", "group": "resource", "lat": -19.11197404806468, "lon": 6.561159513363341, "alt_km": 625.0479731415962, "timestamp": "2025-12-06T14:35:36.784731+00:00", "meta": {"OBJECT_NAME": "YAOGAN-29", "OBJECT_ID": "2015-069A", "EPOCH": "2025-12-06T06:34:59.105280", "MEAN_MOTION": 14.82871965, "ECCENTRICITY": 5.335e-05, "INCLINATION": 98.0224, "RA_OF_ASC_NODE": 3.4251, "ARG_OF_PERICENTER": 358.1959, "MEAN_ANOMALY": 1.9252, "EPHEMERIS_TYPE": 0, "CLASSIFICATION_TYPE": "U", "NORAD_CAT_ID": 41038, "ELEMENT_SET_NO": 999, "REV_AT_EPOCH": 54203, "BSTAR": 0.0001264384, "MEAN_MOTION_DOT": 9.7e-06, "MEAN_MOTION_DDOT": 0}, "tle": {"line1": "1 41038U 15069A   25340.27429520  .00000970  00000+0  12644-3 0  9997", "line2": "2 41038  98.0224   3.4251 0000533 358.1959   1.9252 14.82871965542033"}}, "geometry": {"type": "Point", "coordinates": [6.561159513363341, -19.11197404806468]}}, {"type": "Feature", "properties": {"norad_id": 41167, "name": "KENT RIDGE 1", "group": "resource", "lat": -4.487670025417076, "lon": -120.4242397888593, "alt_km": 496.0882872690754, "timestamp": "2025-12-06T14:35:36.784741+00:00", "meta": {"OBJECT_NAME": "KENT RIDGE 1", "OBJECT_ID": "2015-077B", "EPOCH": "2025-12-06T00:30:39.133728", "MEAN_MOTION": 15.21554982, "ECCENTRICITY": 0.00086098, "INCLINATION": 14.9799, "RA_OF_ASC_NODE": 260.9929, "ARG_OF_PERICENTER": 35.4877, "MEAN_ANOMALY": 324.6017, "EPHEMERIS_TYPE": 0, "CLASSIFICATION_TYPE": "U", "NORAD_CAT_ID": 41167, "ELEMENT_SET_NO": 999, "REV_AT_EPOCH": 55161, "BSTAR": 0.00028434747, "MEAN_MOTION_DOT": 7.37e-05, "MEAN_MOTION_DDOT": 0}, "tle": {"line1": "1 41167U 15077B   25340.02128627  .00007370  00000+0  28435-3 0  9992", "line2": "2 41167  14.9799 260.9929 0008609  35.4877 324.6017 15.21554982551617"}}, "geometry": {"type": "Point", "coordinates": [-120.4242397888593, -4.487670025417076]}}, {"type": "Feature", "properties": {"norad_id": 41194, "name": "GAOFEN-4", "group": "resource", "lat": -0.07470841856947619, "lon": 40.21788750986783, "alt_km": 35798.7467722809, "timestamp": "2025-12-06T14:35:36.784754+00:00", "meta": {"OBJECT_NAME": "GAOFEN-4", "OBJECT_ID": "2015-083A", "EPOCH": "2025-12-06T07:19:11.046144", "MEAN_MOTION": 1.00272244, "ECCENTRICITY": 0.0003629, "INCLINATION": 0.1532, "RA_OF_ASC_NODE": 80.9473, "ARG_OF_PERICENTER": 105.7587, "MEAN_ANOMALY": 104.1394, "EPHEMERIS_TYPE": 0, "CLASSIFICATION_TYPE": "U", "NORAD_CAT_ID": 41194, "ELEMENT_SET_NO": 999, "REV_AT_EPOCH": 3659, "BSTAR": 0, "MEAN_MOTION_DOT": -3.27e-06, "MEAN_MOTION_DDOT": 0}, "tle": {"line1": "1 41194U 15083A   25340.30498896 -.00000327  00000+0  00000+0 0  9998", "line2": "2 41194   0.1532  80.9473 0003629 105.7587 104.1394  1.00272244 36593"}}, "geometry": {"type": "Point", "coordinates": [40.21788750986783, -0.07470841856947619]}}, {"type": "Feature", "properties": {"norad_id": 41240, "name": "JASON-3", "group": "resource", "lat": -26.15842092832529, "lon": 158.100821709033, "alt_km": 1312.951506022432, "timestamp": "2025-12-06T14:35:36.784764+00:00", "meta": {"OBJECT_NAME": "JASON-3", "OBJECT_ID": "2016-002A", "EPOCH": "2025-12-06T07:17:11.751936", "MEAN_MOTION": 12.87626244, "ECCENTRICITY": 0.000713, "INCLINATION": 66.0391, "RA_OF_ASC_NODE": 171.3558, "ARG_OF_PERICENTER": 270.4488, "MEAN_ANOMALY": 89.5713, "EPHEMERIS_TYPE": 0, "CLASSIFICATION_TYPE": "U", "NORAD_CAT_ID": 41240, "ELEMENT_SET_NO": 999, "REV_AT_EPOCH": 46241, "BSTAR": 0.0001344931, "MEAN_MOTION_DOT": -2.8e-07, "MEAN_MOTION_DDOT": 0}, "tle": {"line1": "1 41240U 16002A   25340.30360824 -.00000028  00000+0  13449-3 0  9994", "line2": "2 41240  66.0391 171.3558 0007130 270.4488  89.5713 12.87626244462414"}}, "geometry": {"type": "Point", "coordinates": [158.100821709033, -26.15842092832529]}}]}